#cV2024  8 17  0  0  0.00000000       2 ORBIT IGS20 HLM  IGS
## 2326 518400.00000000   900.00000000 60539 0.0000000000000
+    2   G01G02  0  0  0  0  0  0  0  0  0  0  0  0  0  0  0
+          0  0  0  0  0  0  0  0  0  0  0  0  0  0  0  0  0
+          0  0  0  0  0  0  0  0  0  0  0  0  0  0  0  0  0
+          0  0  0  0  0  0  0  0  0  0  0  0  0  0  0  0  0
+          0  0  0  0  0  0  0  0  0  0  0  0  0  0  0  0  0
++         7  6  0  0  0  0  0  0  0  0  0  0  0  0  0  0  0
++         0  0  0  0  0  0  0  0  0  0  0  0  0  0  0  0  0
++         0  0  0  0  0  0  0  0  0  0  0  0  0  0  0  0  0
++         0  0  0  0  0  0  0  0  0  0  0  0  0  0  0  0  0
++         0  0  0  0  0  0  0  0  0  0  0  0  0  0  0  0  0
%c M  cc GPS ccc cccc cccc cccc cccc ccccc ccccc ccccc ccccc
%c cc cc ccc ccc cccc cccc cccc cccc ccccc ccccc ccccc ccccc
%f  1.2500000  1.025000000  0.00000000000  0.000000000000000
%f  0.0000000  0.000000000  0.00000000000  0.000000000000000
%i    0    0    0    0      0      0      0      0         0
%i    0    0    0    0      0      0      0      0         0
/* SP3-c sample for orbit-formats tests, not a real IGS product
/* two GPS satellites, two epochs, position and velocity
/* frame IGS20, time system GPS, 15-minute interval
/* values are illustrative, hand authored
*  2024  8 17  0  0  0.00000000
PG01  -8000.000000  20000.000000  16000.000000    100.000000
VG01  30000.000000 -20000.000000  10000.000000     10.000000
PG02  15000.000000 -12000.000000  18000.000000   -200.000000
VG02 -25000.000000  28000.000000 -15000.000000    -20.000000
*  2024  8 17  0 15  0.00000000
PG01  -8100.000000  19900.000000  16100.000000    101.000000
VG01  30100.000000 -20100.000000  10100.000000     11.000000
PG02  15100.000000 -12100.000000  18100.000000   -201.000000
VG02 -25100.000000  28100.000000 -15100.000000    -21.000000
EOF
